COSMOS 2251 DEB         
1 34918U 93036ADP 26058.73686052  .00007608  00000+0  14931-2 0  9994
2 34918  74.0710 166.5626 0026893 113.3417  37.3040 14.62624432664610
COSMOS 2251 DEB         
1 34924U 93036ADV 26065.04877118  .00003352  00000+0  67797-3 0  9999
2 34924  74.0390 290.4027 0053988 352.0282 158.6868 14.60826411889398
COSMOS 2251 DEB         
1 34944U 93036ADX 26064.45955881  .00001836  00000+0  76809-3 0  9998
2 34944  73.7461  82.7694 0222469 276.8162  80.7712 14.14410801652526
COSMOS 2251 DEB         
1 34946U 93036ADZ 26065.01240883  .00003455  00000+0  67363-3 0  9996
2 34946  74.0247 182.4974 0051916 297.9824  61.6094 14.62553939894262
COSMOS 2251 DEB         
1 34949U 93036AEC 26059.40082795  .00002952  00000+0  42758-3 0  9993
2 34949  74.0190 317.8773 0077355  83.5544 277.4430 14.74531253895064
COSMOS 2251 DEB         
1 34953U 93036AEG 26064.42871096  .00008002  00000+0  13047-2 0  9996
2 34953  74.0907 227.8264 0056731 200.0004 189.3417 14.70021654893432
COSMOS 2251 DEB         
1 34955U 93036AEJ 26064.70479129  .00010348  00000+0  74070-3 0  9990
2 34955  74.0335  77.4856 0071757 126.9648 233.8139 15.02401534912792
COSMOS 2251 DEB         
1 34962U 93036AER 26064.91136262  .00002041  00000+0  56927-3 0  9991
2 34962  74.0300  37.9550 0017018 138.8461 221.3985 14.46849253887815
COSMOS 2251 DEB         
1 34963U 93036AES 26064.92801425  .00004972  00000+0  12232-2 0  9998
2 34963  74.1678 247.4131 0041079  57.3054 303.2059 14.51997724880082
COSMOS 2251 DEB         
1 34964U 93036AET 26061.08186653  .00002549  00000+0  14172-2 0  9995
2 34964  73.9689 209.7047 0210292  50.3303 311.6169 14.00978422855898
COSMOS 2251 DEB         
1 34965U 93036AEU 26065.06745012  .00001236  00000+0  33234-3 0  9991
2 34965  74.0539 332.4403 0024304  78.2714 282.1171 14.48939504883208
COSMOS 2251 DEB         
1 34967U 93036AEW 26057.44062581  .00001725  00000+0  50050-3 0  9997
2 34967  73.9926 112.6011 0041714 244.3813 115.3031 14.44660564660502
COSMOS 2251 DEB         
1 34968U 93036AEX 26065.05197205  .00000670  00000+0  14011-3 0  9991
2 34968  74.0366  88.2360 0086950 189.2700 170.6866 14.59565858896935
COSMOS 2251 DEB         
1 34969U 93036AEY 26054.87929306  .00000615  00000+0  22991-3 0  9990
2 34969  74.0115 249.4806 0074250   3.6645 356.5033 14.32401751661844
COSMOS 2251 DEB         
1 34971U 93036AFA 26062.87416862  .00000926  00000+0  21137-3 0  9996
2 34971  73.9780 130.7059 0070795 335.0871 147.9916 14.55784410673530
COSMOS 2251 DEB         
1 34972U 93036AFB 26064.95726074  .00009730  00000+0  14428-2 0  9993
2 34972  73.9851 247.0366 0033373  20.9717 130.6151 14.74806554888761
