[{"OBJECT_NAME":"COSMOS 2251 DEB","OBJECT_ID":"1993-036ADP","EPOCH":"2026-02-27T17:41:04.748928","MEAN_MOTION":14.62624432,"ECCENTRICITY":0.00268931,"INCLINATION":74.071,"RA_OF_ASC_NODE":166.5626,"ARG_OF_PERICENTER":113.3417,"MEAN_ANOMALY":37.304,"EPHEMERIS_TYPE":0,"CLASSIFICATION_TYPE":"U","NORAD_CAT_ID":34918,"ELEMENT_SET_NO":999,"REV_AT_EPOCH":66461,"BSTAR":0.0014930561,"MEAN_MOTION_DOT":7.608e-5,"MEAN_MOTION_DDOT":0},{"OBJECT_NAME":"COSMOS 2251 DEB","OBJECT_ID":"1993-036ADV","EPOCH":"2026-03-06T01:10:13.829952","MEAN_MOTION":14.60826411,"ECCENTRICITY":0.00539888,"INCLINATION":74.039,"RA_OF_ASC_NODE":290.4027,"ARG_OF_PERICENTER":352.0282,"MEAN_ANOMALY":158.6868,"EPHEMERIS_TYPE":0,"CLASSIFICATION_TYPE":"U","NORAD_CAT_ID":34924,"ELEMENT_SET_NO":999,"REV_AT_EPOCH":88939,"BSTAR":0.00067797294,"MEAN_MOTION_DOT":3.352e-5,"MEAN_MOTION_DDOT":0},{"OBJECT_NAME":"COSMOS 2251 DEB","OBJECT_ID":"1993-036ADX","EPOCH":"2026-03-05T11:01:45.881184","MEAN_MOTION":14.14410801,"ECCENTRICITY":0.0222469,"INCLINATION":73.7461,"RA_OF_ASC_NODE":82.7694,"ARG_OF_PERICENTER":276.8162,"MEAN_ANOMALY":80.7712,"EPHEMERIS_TYPE":0,"CLASSIFICATION_TYPE":"U","NORAD_CAT_ID":34944,"ELEMENT_SET_NO":999,"REV_AT_EPOCH":65252,"BSTAR":0.00076809,"MEAN_MOTION_DOT":1.836e-5,"MEAN_MOTION_DDOT":0},{"OBJECT_NAME":"COSMOS 2251 DEB","OBJECT_ID":"1993-036ADZ","EPOCH":"2026-03-06T00:17:52.122912","MEAN_MOTION":14.62553939,"ECCENTRICITY":0.00519166,"INCLINATION":74.0247,"RA_OF_ASC_NODE":182.4974,"ARG_OF_PERICENTER":297.9824,"MEAN_ANOMALY":61.6094,"EPHEMERIS_TYPE":0,"CLASSIFICATION_TYPE":"U","NORAD_CAT_ID":34946,"ELEMENT_SET_NO":999,"REV_AT_EPOCH":89426,"BSTAR":0.00067362992,"MEAN_MOTION_DOT":3.455e-5,"MEAN_MOTION_DDOT":0},{"OBJECT_NAME":"COSMOS 2251 DEB","OBJECT_ID":"1993-036AEC","EPOCH":"2026-02-28T09:37:11.534880","MEAN_MOTION":14.74531253,"ECCENTRICITY":0.00773559,"INCLINATION":74.019,"RA_OF_ASC_NODE":317.8773,"ARG_OF_PERICENTER":83.5544,"MEAN_ANOMALY":277.443,"EPHEMERIS_TYPE":0,"CLASSIFICATION_TYPE":"U","NORAD_CAT_ID":34949,"ELEMENT_SET_NO":999,"REV_AT_EPOCH":89506,"BSTAR":0.00042757878,"MEAN_MOTION_DOT":2.952e-5,"MEAN_MOTION_DDOT":0},{"OBJECT_NAME":"COSMOS 2251 DEB","OBJECT_ID":"1993-036AEG","EPOCH":"2026-03-05T10:17:20.626944","MEAN_MOTION":14.70021654,"ECCENTRICITY":0.0056731,"INCLINATION":74.0907,"RA_OF_ASC_NODE":227.8264,"ARG_OF_PERICENTER":200.0004,"MEAN_ANOMALY":189.3417,"EPHEMERIS_TYPE":0,"CLASSIFICATION_TYPE":"U","NORAD_CAT_ID":34953,"ELEMENT_SET_NO":999,"REV_AT_EPOCH":89343,"BSTAR":0.0013047,"MEAN_MOTION_DOT":8.002e-5,"MEAN_MOTION_DDOT":0},{"OBJECT_NAME":"COSMOS 2251 DEB","OBJECT_ID":"1993-036AEJ","EPOCH":"2026-03-05T16:54:53.967456","MEAN_MOTION":15.02401534,"ECCENTRICITY":0.00717573,"INCLINATION":74.0335,"RA_OF_ASC_NODE":77.4856,"ARG_OF_PERICENTER":126.9648,"MEAN_ANOMALY":233.8139,"EPHEMERIS_TYPE":0,"CLASSIFICATION_TYPE":"U","NORAD_CAT_ID":34955,"ELEMENT_SET_NO":999,"REV_AT_EPOCH":91279,"BSTAR":0.00074070052,"MEAN_MOTION_DOT":0.00010348,"MEAN_MOTION_DDOT":0},{"OBJECT_NAME":"COSMOS 2251 DEB","OBJECT_ID":"1993-036AER","EPOCH":"2026-03-05T21:52:21.730368","MEAN_MOTION":14.46849253,"ECCENTRICITY":0.00170185,"INCLINATION":74.03,"RA_OF_ASC_NODE":37.955,"ARG_OF_PERICENTER":138.8461,"MEAN_ANOMALY":221.3985,"EPHEMERIS_TYPE":0,"CLASSIFICATION_TYPE":"U","NORAD_CAT_ID":34962,"ELEMENT_SET_NO":999,"REV_AT_EPOCH":88781,"BSTAR":0.00056926558,"MEAN_MOTION_DOT":2.041e-5,"MEAN_MOTION_DDOT":0},{"OBJECT_NAME":"COSMOS 2251 DEB","OBJECT_ID":"1993-036AES","EPOCH":"2026-03-05T22:16:20.431200","MEAN_MOTION":14.51997724,"ECCENTRICITY":0.0041079,"INCLINATION":74.1678,"RA_OF_ASC_NODE":247.4131,"ARG_OF_PERICENTER":57.3054,"MEAN_ANOMALY":303.2059,"EPHEMERIS_TYPE":0,"CLASSIFICATION_TYPE":"U","NORAD_CAT_ID":34963,"ELEMENT_SET_NO":999,"REV_AT_EPOCH":88008,"BSTAR":0.0012231569,"MEAN_MOTION_DOT":4.972e-5,"MEAN_MOTION_DDOT":0},{"OBJECT_NAME":"COSMOS 2251 DEB","OBJECT_ID":"1993-036AET","EPOCH":"2026-03-02T01:57:53.268192","MEAN_MOTION":14.00978422,"ECCENTRICITY":0.02102926,"INCLINATION":73.9689,"RA_OF_ASC_NODE":209.7047,"ARG_OF_PERICENTER":50.3303,"MEAN_ANOMALY":311.6169,"EPHEMERIS_TYPE":0,"CLASSIFICATION_TYPE":"U","NORAD_CAT_ID":34964,"ELEMENT_SET_NO":999,"REV_AT_EPOCH":85589,"BSTAR":0.0014172278,"MEAN_MOTION_DOT":2.549e-5,"MEAN_MOTION_DDOT":0},{"OBJECT_NAME":"COSMOS 2251 DEB","OBJECT_ID":"1993-036AEU","EPOCH":"2026-03-06T01:37:07.690368","MEAN_MOTION":14.48939504,"ECCENTRICITY":0.00243041,"INCLINATION":74.0539,"RA_OF_ASC_NODE":332.4403,"ARG_OF_PERICENTER":78.2714,"MEAN_ANOMALY":282.1171,"EPHEMERIS_TYPE":0,"CLASSIFICATION_TYPE":"U","NORAD_CAT_ID":34965,"ELEMENT_SET_NO":999,"REV_AT_EPOCH":88320,"BSTAR":0.00033233754,"MEAN_MOTION_DOT":1.236e-5,"MEAN_MOTION_DDOT":0},{"OBJECT_NAME":"COSMOS 2251 DEB","OBJECT_ID":"1993-036AEW","EPOCH":"2026-02-26T10:34:30.069984","MEAN_MOTION":14.44660564,"ECCENTRICITY":0.0041714,"INCLINATION":73.9926,"RA_OF_ASC_NODE":112.6011,"ARG_OF_PERICENTER":244.3813,"MEAN_ANOMALY":115.3031,"EPHEMERIS_TYPE":0,"CLASSIFICATION_TYPE":"U","NORAD_CAT_ID":34967,"ELEMENT_SET_NO":999,"REV_AT_EPOCH":66050,"BSTAR":0.0005005,"MEAN_MOTION_DOT":1.725e-5,"MEAN_MOTION_DDOT":0},{"OBJECT_NAME":"COSMOS 2251 DEB","OBJECT_ID":"1993-036AEX","EPOCH":"2026-03-06T01:14:50.385120","MEAN_MOTION":14.59565858,"ECCENTRICITY":0.00869505,"INCLINATION":74.0366,"RA_OF_ASC_NODE":88.236,"ARG_OF_PERICENTER":189.27,"MEAN_ANOMALY":170.6866,"EPHEMERIS_TYPE":0,"CLASSIFICATION_TYPE":"U","NORAD_CAT_ID":34968,"ELEMENT_SET_NO":999,"REV_AT_EPOCH":89693,"BSTAR":0.00014010543,"MEAN_MOTION_DOT":6.7e-6,"MEAN_MOTION_DDOT":0},{"OBJECT_NAME":"COSMOS 2251 DEB","OBJECT_ID":"1993-036AEY","EPOCH":"2026-02-23T21:06:10.920384","MEAN_MOTION":14.32401751,"ECCENTRICITY":0.00742504,"INCLINATION":74.0115,"RA_OF_ASC_NODE":249.4806,"ARG_OF_PERICENTER":3.6645,"MEAN_ANOMALY":356.5033,"EPHEMERIS_TYPE":0,"CLASSIFICATION_TYPE":"U","NORAD_CAT_ID":34969,"ELEMENT_SET_NO":999,"REV_AT_EPOCH":66184,"BSTAR":0.0002299142,"MEAN_MOTION_DOT":6.15e-6,"MEAN_MOTION_DDOT":0},{"OBJECT_NAME":"COSMOS 2251 DEB","OBJECT_ID":"1993-036AFA","EPOCH":"2026-03-03T20:58:48.168768","MEAN_MOTION":14.5578441,"ECCENTRICITY":0.0070795,"INCLINATION":73.978,"RA_OF_ASC_NODE":130.7059,"ARG_OF_PERICENTER":335.0871,"MEAN_ANOMALY":147.9916,"EPHEMERIS_TYPE":0,"CLASSIFICATION_TYPE":"U","NORAD_CAT_ID":34971,"ELEMENT_SET_NO":999,"REV_AT_EPOCH":67353,"BSTAR":0.00021137,"MEAN_MOTION_DOT":9.26e-6,"MEAN_MOTION_DDOT":0},{"OBJECT_NAME":"COSMOS 2251 DEB","OBJECT_ID":"1993-036AFB","EPOCH":"2026-03-05T22:58:27.327936","MEAN_MOTION":14.74806554,"ECCENTRICITY":0.00333733,"INCLINATION":73.9851,"RA_OF_ASC_NODE":247.0366,"ARG_OF_PERICENTER":20.9717,"MEAN_ANOMALY":130.6151,"EPHEMERIS_TYPE":0,"CLASSIFICATION_TYPE":"U","NORAD_CAT_ID":34972,"ELEMENT_SET_NO":999,"REV_AT_EPOCH":88876,"BSTAR":0.0014427644,"MEAN_MOTION_DOT":9.73e-5,"MEAN_MOTION_DDOT":0}]
